ONEWEB-0589             
1 54655U 22166P   25040.86718917  .00000076  00000+0  15187-3 0  9997
2 54655  87.9347 342.1040 0001016  65.7096 294.4144 13.21824855106509
ONEWEB-0590             
1 54656U 22166Q   25040.89037969  .00000072  00000+0  14162-3 0  9990
2 54656  87.9333 342.0972 0002001  71.2073 288.9278 13.21867479106493
ONEWEB-0591             
1 54657U 22166R   25041.13055186  .00000042  00000+0  71066-4 0  9994
2 54657  87.9347 342.0532 0001682  75.9642 284.1679 13.21828012107010
ONEWEB-0592             
1 54658U 22166S   25040.83092345  .00000197  00000+0  44624-3 0  9999
2 54658  87.9342 342.0695 0001784  76.0812 284.0520 13.21824994106399
ONEWEB-0593             
1 54659U 22166T   25041.08165352  .00000019  00000+0  14157-4 0  9999
2 54659  87.9346 342.0535 0001636  76.7801 283.3516 13.21824791107009
ONEWEB-0594             
1 54660U 22166U   25040.79779447 -.00000018  00000+0 -74131-4 0  9993
2 54660  87.9349 342.1181 0001833  81.9757 278.1585 13.21824699106519
ONEWEB-0595             
1 54661U 22166V   25040.85141766  .00000089  00000+0  18412-3 0  9993
2 54661  87.9347 342.0889 0002001  78.7342 281.4017 13.21825978106499
ONEWEB-0596             
1 54662U 22166W   25040.82460265 -.00000001  00000+0 -34843-4 0  9992
2 54662  87.9350 342.1045 0001716  72.0865 288.0456 13.21826576106493
ONEWEB-0597             
1 54663U 22166X   25041.10847006  .00000060  00000+0  11397-3 0  9998
2 54663  87.9349 342.0508 0001580  78.4768 281.6543 13.21824176107004
ONEWEB-0600             
1 54664U 22166Y   25040.86403531  .00000087  00000+0  17907-3 0  9994
2 54664  87.9332 342.1255 0001658  81.7955 278.3367 13.21826012106476
ONEWEB-0601             
1 54665U 22166Z   25040.85615139  .00000078  00000+0  15619-3 0  9991
2 54665  87.9352 342.1094 0001477  71.0282 289.1012 13.21827050106665
ONEWEB-0602             
1 54666U 22166AA  25041.12425589  .00000038  00000+0  60381-4 0  9994
2 54666  87.9351 342.0581 0001538  82.8122 277.3186 13.21827342107011
ONEWEB-0603             
1 54667U 22166AB  25040.90187390 -.00000012  00000+0 -60690-4 0  9992
2 54667  87.9325 342.0787 0001504  77.7347 282.3956 13.21825172106442
ONEWEB-0604             
1 54668U 22166AC  25040.88926273  .00000044  00000+0  74225-4 0  9993
2 54668  87.9345 342.0729 0001515  84.0593 276.0713 13.21827148106409
ONEWEB-0605             
1 54669U 22166AD  25040.88296284  .00000048  00000+0  84223-4 0  9999
2 54669  87.9343 342.1054 0001472  55.5046 304.6227 13.21827291106472
ONEWEB-0606             
1 54670U 22166AE  25040.82933580  .00000031  00000+0  44453-4 0  9995
2 54670  87.9350 342.1196 0001993  80.3702 279.7657 13.21827641106526
ONEWEB-0607             
1 54671U 22166AF  25040.87192225  .00000099  00000+0  20778-3 0  9991
2 54671  87.9347 342.0808 0001653  79.4077 280.7243 13.21828198106508
ONEWEB-0608             
1 54672U 22166AG  25040.87822681  .00000045  00000+0  77928-4 0  9999
2 54672  87.9330 342.0915 0001410  69.7045 290.4240 13.21826477106512
ONEWEB-0610             
1 54673U 22166AH  25041.23779044  .00000078  00000+0  15814-3 0  9996
2 54673  87.9348 342.0265 0001411  68.8444 291.2841 13.21826621106937
ONEWEB-0611             
1 54674U 22166AJ  25041.23148243  .00000065  00000+0  12636-3 0  9993
2 54674  87.9348 342.0254 0002070  85.7926 274.3445 13.21825996106926
ONEWEB-0612             
1 54675U 22166AK  25040.86561312  .00000084  00000+0  17236-3 0  9990
2 54675  87.9346 342.0775 0001598  76.1558 283.9754 13.21826913106392
ONEWEB-0615             
1 54676U 22166AL  25040.84669019  .00000039  00000+0  63444-4 0  9995
2 54676  87.9346 342.1070 0001568  82.6304 277.5008 13.21825858106400
ONEWEB-0655             
1 54677U 22166AM  25041.19835160 -.00000037  00000+0 -12079-3 0  9994
2 54677  87.9347 342.0409 0001568  89.4318 270.6996 13.21825800106910
ONEWEB-0659             
1 54678U 22166AN  25041.21571295 -.00000022  00000+0 -85372-4 0  9995
2 54678  87.9345 342.0405 0001932  76.6608 283.4741 13.21826518107008
ONEWEB-0685             
1 54679U 22166AP  25041.21727757 -.00000008  00000+0 -51301-4 0  9991
2 54679  87.9347 342.0330 0001569  83.5706 276.5607 13.21824804106896
ONEWEB-0712             
1 54680U 22166AQ  25041.20769385  .00000031  00000+0  48370-4 0  9991
2 54680  87.9127 326.8119 0001677  99.6340 260.4980 13.16596138107786
ONEWEB-0714             
1 54681U 22166AR  25041.07220232 -.00000020  00000+0 -79459-4 0  9992
2 54681  87.9348 342.0520 0001597  81.9003 278.2312 13.21826400106991
ONEWEB-0532             
1 55140U 23004A   25040.73915875  .00000020  00000+0  18096-4 0  9999
2 55140  87.9059 103.9726 0001694  86.5239 273.6086 13.17649194102736
ONEWEB-0533             
1 55141U 23004B   25040.88911010  .00000532  00000+0  14421-2 0  9997
2 55141  87.8833  88.6646 0001790 100.5573 259.5757 13.12442967103486
ONEWEB-0541             
1 55142U 23004C   25040.91553092 -.00000089  00000+0 -28796-3 0  9994
2 55142  87.8883 119.1806 0001858 103.8158 256.3177 13.11414054101428
ONEWEB-0543             
1 55143U 23004D   25040.80165582  .00000125  00000+0  28530-3 0  9991
2 55143  87.9047  73.4691 0001976 105.1972 254.9379 13.18685737104804
ONEWEB-0544             
1 55144U 23004E   25040.79532842  .00000146  00000+0  33654-3 0  9993
2 55144  87.9048  73.4584 0002098  94.9038 265.2334 13.18686103104805
ONEWEB-0560             
1 55145U 23004F   25040.78901321  .00000141  00000+0  32504-3 0  9993
2 55145  87.9054  73.4249 0002256  98.0204 262.1184 13.18686200104815
ONEWEB-0565             
1 55146U 23004G   25041.08619562  .00000108  00000+0  24138-3 0  9998
2 55146  87.9049  73.4320 0002367  84.6486 275.4916 13.18686511104844
ONEWEB-0567             
1 55147U 23004H   25041.15572653  .00001878  00000+0  47283-2 0  9996
2 55147  87.9051  73.3727 0002301  92.4260 267.7136 13.18700594104850
ONEWEB-0569             
1 55148U 23004J   25040.74756220 -.00000018  00000+0 -84940-4 0  9995
2 55148  87.8879  58.1034 0002894  94.7333 265.4127 13.13470747105533
ONEWEB-0570             
1 55149U 23004K   25041.14309081  .00000012  00000+0 -15807-5 0  9990
2 55149  87.9052  73.3772 0001902  72.9286 287.2054 13.18686285104845
ONEWEB-0571             
1 55150U 23004L   25040.83326493  .00000030  00000+0  42161-4 0  9994
2 55150  87.9052  73.4472 0002920  82.7583 277.3881 13.18685698104817
ONEWEB-0572             
1 55151U 23004M   25040.92139894  .00000102  00000+0  23032-3 0  9997
2 55151  87.9058 103.9436 0001971  93.5214 266.6143 13.17650452102650
ONEWEB-0573             
1 55152U 23004N   25040.82694554  .00000045  00000+0  80700-4 0  9998
2 55152  87.9047  73.4580 0002555  77.0528 283.0890 13.18686828104802
ONEWEB-0588             
1 55153U 23004P   25040.82061910  .00000107  00000+0  23837-3 0  9999
2 55153  87.9052  73.4378 0001965  79.3940 280.7414 13.18685913104801
ONEWEB-0598             
1 55154U 23004Q   25040.74091159  .00000615  00000+0  17006-2 0  9993
2 55154  87.8882 119.2532 0002509  98.9030 261.2382 13.11416466101358
ONEWEB-0599             
1 55155U 23004R   25040.88259316  .00000091  00000+0  20160-3 0  9994
2 55155  87.9067 103.9487 0002133 102.7596 257.3774 13.17649854102658
ONEWEB-0614             
1 55156U 23004S   25040.65953692  .00000524  00000+0  14431-2 0  9992
2 55156  87.8884 119.2764 0001508  98.6137 261.5162 13.11417657101286
ONEWEB-0616             
1 55157U 23004T   25041.22851386  .00000002  00000+0 -27917-4 0  9991
2 55157  87.9058 103.8772 0002516 126.2971 233.8394 13.17650042102916
ONEWEB-0617             
1 55158U 23004U   25040.72393214 -.00000156  00000+0 -47501-3 0  9998
2 55158  87.8882 119.2494 0001689  91.6667 268.4655 13.11418662101311
ONEWEB-0618             
1 55159U 23004V   25041.25002315  .00640748  00000+0  22800+0 0  9993
2 55159  86.9104   8.8291 0011320 228.0683  47.2665 14.31857280109299
ONEWEB-0619             
1 55160U 23004W   25040.72903980  .00000001  00000+0 -31033-4 0  9990
2 55160  87.9062 103.9536 0001422 110.8559 249.2725 13.17650991102743
ONEWEB-0620             
1 55161U 23004X   25040.71884583 -.00000400  00000+0 -11655-2 0  9997
2 55161  87.8886 119.2670 0001932  89.4126 270.7223 13.11418147101282
ONEWEB-0621             
1 55162U 23004Y   25040.74598934  .00000496  00000+0  13640-2 0  9992
2 55162  87.8878 119.2232 0001600 106.7574 253.3730 13.11416809101261
ONEWEB-0622             
1 55163U 23004Z   25040.90366840  .00000394  00000+0  10767-2 0  9994
2 55163  87.8881 119.2123 0001510  78.1202 282.0095 13.11414625101273
ONEWEB-0623             
1 55164U 23004AA  25040.87584189  .00000075  00000+0  16010-3 0  9993
2 55164  87.9062 103.9796 0001251  82.1160 278.0113 13.17648304102751
ONEWEB-0624             
1 55165U 23004AB  25040.85518065 -.00000298  00000+0 -86460-3 0  9997
2 55165  87.8834  88.6798 0001748  95.0566 265.0762 13.12442633103471
ONEWEB-0625             
1 55166U 23004AC  25040.86571326  .00000079  00000+0  16983-3 0  9996
2 55166  87.9061 103.9800 0001944 106.1068 254.0278 13.17650941102746
ONEWEB-0626             
1 55167U 23004AD  25041.15932889  .00000094  00000+0  20760-3 0  9990
2 55167  87.9059 103.9202 0002520  95.7053 264.4366 13.17650736102787
ONEWEB-0627             
1 55168U 23004AE  25040.91972150  .00000087  00000+0  19094-3 0  9999
2 55168  87.9059 103.9701 0001504  84.2531 275.8772 13.17648565102758
ONEWEB-0628             
1 55169U 23004AF  25040.83571785 -.00000159  00000+0 -47866-3 0  9990
2 55169  87.8829  88.6640 0001204  84.3473 275.7792 13.12441461103457
ONEWEB-0629             
1 55170U 23004AG  25040.89523385  .00000084  00000+0  18374-3 0  9998
2 55170  87.9054 103.9452 0001570 110.0541 250.0759 13.17651635102753
ONEWEB-0631             
1 55171U 23004AH  25040.81429451  .00000092  00000+0  20180-3 0  9997
2 55171  87.9058  73.3573 0002240  81.0222 279.1163 13.18687209104783
